[{"OBJECT_NAME":"ONEWEB-0085","OBJECT_ID":"2020-020Q","EPOCH":"2026-03-09T22:41:42.827712","MEAN_MOTION":13.11416682,"ECCENTRICITY":0.00018325,"INCLINATION":87.8865,"RA_OF_ASC_NODE":40.7983,"ARG_OF_PERICENTER":82.3092,"MEAN_ANOMALY":277.8243,"EPHEMERIS_TYPE":0,"CLASSIFICATION_TYPE":"U","NORAD_CAT_ID":45438,"ELEMENT_SET_NO":999,"REV_AT_EPOCH":28966,"BSTAR":-0.0012789285,"MEAN_MOTION_DOT":-4.41e-6,"MEAN_MOTION_DDOT":0},{"OBJECT_NAME":"CZ-4 DEB","OBJECT_ID":"1990-081AW","EPOCH":"2026-03-09T08:38:57.556896","MEAN_MOTION":13.55703753,"ECCENTRICITY":0.02426714,"INCLINATION":99.0045,"RA_OF_ASC_NODE":218.1726,"ARG_OF_PERICENTER":15.3524,"MEAN_ANOMALY":46.2482,"EPHEMERIS_TYPE":0,"CLASSIFICATION_TYPE":"U","NORAD_CAT_ID":20886,"ELEMENT_SET_NO":999,"REV_AT_EPOCH":74884,"BSTAR":0.00028582766,"MEAN_MOTION_DOT":2.02e-6,"MEAN_MOTION_DDOT":0}]
